0 FENGYUN 1C DEB
1 31502U 99025BWR 13288.74669203  .00001458  00000-0  10569-2 0  4711
2 31502 099.2004 271.4484 0084650 252.8965 106.3633 13.96425040333136
0 FENGYUN 1C DEB
1 31502U 99025BWR 13291.39773890  .00001519  00000-0  11001-2 0  4725
2 31502 099.2032 274.0998 0083781 243.3146 115.9623 13.96434749333508
0 FENGYUN 1C DEB
1 31502U 99025BWR 13292.40082956  .00001576  00000-0  11394-2 0  4733
2 31502 099.2033 275.1053 0084383 241.4055 117.8803 13.96439741333643
0 FENGYUN 1C DEB
1 31502U 99025BWR 13292.90237448  .00001616  00000-0  11660-2 0  4748
2 31502 099.2031 275.6108 0085992 241.2697 118.0410 13.96442826333717
0 FENGYUN 1C DEB
1 31502U 99025BWR 13293.40391036  .00001645  00000-0  11868-2 0  4751
2 31502 099.2035 276.1118 0085554 239.1072 120.1757 13.96445344333788
